{
  "type": "FeatureCollection",
  "name": "valleraugue_mairie_poc",
  "crs": {
    "type": "name",
    "properties": {
      "name": "urn:ogc:def:crs:OGC:1.3:CRS84"
    }
  },
  "features": [
    {
      "type": "Feature",
      "properties": {
        "id": "mairie-val-aigoual",
        "name": "Mairie de Val-d'Aigoual — bureau de Valleraugue",
        "address": "1 place Francis Cavalier-Bénézet, 30570 Val-d'Aigoual",
        "role": "poc_center",
        "source": "Office de tourisme / site municipal",
        "status": "starting_reference_to_visually_confirm"
      },
      "geometry": {
        "type": "Point",
        "coordinates": [3.641219, 44.081089]
      }
    },
    {
      "type": "Feature",
      "properties": {
        "id": "mairie-valleraugue-100m",
        "name": "Carré POC 100 × 100 m autour de la mairie",
        "role": "processing_bbox",
        "crs_processing": "EPSG:2154",
        "bbox_l93": [751306, 6331501, 751406, 6331601],
        "width_m": 100,
        "height_m": 100,
        "area_m2": 10000,
        "buffer_m": 15
      },
      "geometry": {
        "type": "Polygon",
        "coordinates": [
          [
            [3.64058955, 44.08063874],
            [3.64183807, 44.08063143],
            [3.64184821, 44.08153143],
            [3.64059968, 44.08153874],
            [3.64058955, 44.08063874]
          ]
        ]
      }
    }
  ]
}
