{
  "type": "FeatureCollection",
  "name": "balcon-du-vertige-500m",
  "crs": {
    "type": "name",
    "properties": {
      "name": "urn:ogc:def:crs:OGC:1.3:CRS84"
    }
  },
  "features": [
    {
      "type": "Feature",
      "properties": {
        "id": "balcon-du-vertige-500m-centre",
        "name": "Gorges de la Jonte",
        "role": "scene_centre",
        "requested_wgs84": [
          3.239,
          44.1948
        ]
      },
      "geometry": {
        "type": "Point",
        "coordinates": [
          3.23900325,
          44.19480406
        ]
      }
    },
    {
      "type": "Feature",
      "properties": {
        "id": "balcon-du-vertige-500m-emprise",
        "name": "Emprise 500 × 500 m — Gorges de la Jonte",
        "role": "processing_bbox",
        "crs_processing": "EPSG:2154",
        "bbox_l93": [
          718854.0,
          6343756.0,
          719354.0,
          6344256.0
        ],
        "width_m": 500,
        "height_m": 500,
        "area_m2": 250000,
        "buffer_m": 15.0,
        "lidar_tiles": [
          "LHD_FXX_0718_6345",
          "LHD_FXX_0719_6345",
          "LHD_FXX_0718_6344",
          "LHD_FXX_0719_6344"
        ]
      },
      "geometry": {
        "type": "Polygon",
        "coordinates": [
          [
            [
              3.23586627,
              44.19256062
            ],
            [
              3.2421213,
              44.192547
            ],
            [
              3.24214048,
              44.19704741
            ],
            [
              3.23588495,
              44.19706103
            ],
            [
              3.23586627,
              44.19256062
            ]
          ]
        ]
      }
    }
  ]
}
