{
  "type": "FeatureCollection",
  "name": "creyssensac-et-pissot-200m",
  "crs": {
    "type": "name",
    "properties": {
      "name": "urn:ogc:def:crs:OGC:1.3:CRS84"
    }
  },
  "features": [
    {
      "type": "Feature",
      "properties": {
        "id": "creyssensac-et-pissot-200m-centre",
        "name": "Creyssensac-et-Pissot",
        "role": "scene_centre",
        "requested_wgs84": [
          0.658062,
          45.085021
        ]
      },
      "geometry": {
        "type": "Point",
        "coordinates": [
          0.65806425,
          45.08502066
        ]
      }
    },
    {
      "type": "Feature",
      "properties": {
        "id": "creyssensac-et-pissot-200m-emprise",
        "name": "Emprise 200 × 200 m — Creyssensac-et-Pissot",
        "role": "processing_bbox",
        "crs_processing": "EPSG:2154",
        "bbox_l93": [
          515664.0,
          6445494.0,
          515864.0,
          6445694.0
        ],
        "width_m": 200,
        "height_m": 200,
        "area_m2": 40000,
        "buffer_m": 15.0,
        "lidar_tiles": [
          "LHD_FXX_0515_6446"
        ]
      },
      "geometry": {
        "type": "Polygon",
        "coordinates": [
          [
            [
              0.65683155,
              45.08409395
            ],
            [
              0.65937234,
              45.08414735
            ],
            [
              0.659297,
              45.08594735
            ],
            [
              0.65675612,
              45.08589395
            ],
            [
              0.65683155,
              45.08409395
            ]
          ]
        ]
      }
    }
  ]
}
