{
  "type": "FeatureCollection",
  "name": "notre-dame-rouviere-200m",
  "crs": {
    "type": "name",
    "properties": {
      "name": "urn:ogc:def:crs:OGC:1.3:CRS84"
    }
  },
  "features": [
    {
      "type": "Feature",
      "properties": {
        "id": "notre-dame-rouviere-200m-centre",
        "name": "Notre-Dame-de-la-Rouvière",
        "role": "scene_centre",
        "requested_wgs84": [
          3.700903,
          44.048777
        ]
      },
      "geometry": {
        "type": "Point",
        "coordinates": [
          3.70090403,
          44.04877634
        ]
      }
    },
    {
      "type": "Feature",
      "properties": {
        "id": "notre-dame-rouviere-200m-emprise",
        "name": "Emprise 200 × 200 m — Notre-Dame-de-la-Rouvière",
        "role": "processing_bbox",
        "crs_processing": "EPSG:2154",
        "bbox_l93": [
          756068.0,
          6327902.0,
          756268.0,
          6328102.0
        ],
        "width_m": 200,
        "height_m": 200,
        "area_m2": 40000,
        "buffer_m": 15.0,
        "lidar_tiles": [
          "LHD_FXX_0756_6329",
          "LHD_FXX_0756_6328"
        ]
      },
      "geometry": {
        "type": "Polygon",
        "coordinates": [
          [
            [
              3.69964517,
              44.04788434
            ],
            [
              3.70214074,
              44.04786836
            ],
            [
              3.70216293,
              44.04966833
            ],
            [
              3.69966728,
              44.0496843
            ],
            [
              3.69964517,
              44.04788434
            ]
          ]
        ]
      }
    }
  ]
}
